{"type": "FeatureCollection", "features": [ {"type": "Feature", "properties": {"norad_id": 32209, "name": "FENGYUN 1C DEB", "group": "fengyun-1c-debris", "lat": -66.1008455242711, "lon": -46.223691128416675, "alt_km": 1122.528798244135, "timestamp": "2025-12-10T04:57:29.904275+00:00", "meta": {"OBJECT_NAME": "FENGYUN 1C DEB", "OBJECT_ID": "1999-025CVF", "EPOCH": "2025-12-09T02:32:59.551584", "MEAN_MOTION": 13.47147564, "ECCENTRICITY": 0.03330232, "INCLINATION": 99.4221, "RA_OF_ASC_NODE": 290.732, "ARG_OF_PERICENTER": 34.2832, "MEAN_ANOMALY": 327.9318, "EPHEMERIS_TYPE": 0, "CLASSIFICATION_TYPE": "U", "NORAD_CAT_ID": 32209, "ELEMENT_SET_NO": 999, "REV_AT_EPOCH": 89927, "BSTAR": 0.0034977213, "MEAN_MOTION_DOT": 2.944e-05, "MEAN_MOTION_DDOT": 0}, "tle": {"line1": "1 32209U 99025CVF 25343.10624481  .00002944  00000+0  34977-2 0  9994", "line2": "2 32209  99.4221 290.7320 0333023  34.2832 327.9318 13.47147564899274"}}, "geometry": {"type": "Point", "coordinates": [-46.223691128416675, -66.1008455242711]}}, {"type": "Feature", "properties": {"norad_id": 32212, "name": "FENGYUN 1C DEB", "group": "fengyun-1c-debris", "lat": -3.6367386420391945, "lon": 81.21488259760217, "alt_km": 758.4576448988755, "timestamp": "2025-12-10T04:57:29.904285+00:00", "meta": {"OBJECT_NAME": "FENGYUN 1C DEB", "OBJECT_ID": "1999-025CVJ", "EPOCH": "2025-12-07T05:25:21.707616", "MEAN_MOTION": 14.4029402, "ECCENTRICITY": 0.01380025, "INCLINATION": 99.5739, "RA_OF_ASC_NODE": 77.269, "ARG_OF_PERICENTER": 94.4688, "MEAN_ANOMALY": 297.2425, "EPHEMERIS_TYPE": 0, "CLASSIFICATION_TYPE": "U", "NORAD_CAT_ID": 32212, "ELEMENT_SET_NO": 999, "REV_AT_EPOCH": 95982, "BSTAR": 0.00083867725, "MEAN_MOTION_DOT": 2.917e-05, "MEAN_MOTION_DDOT": 0}, "tle": {"line1": "1 32212U 99025CVJ 25341.22594569  .00002917  00000+0  83868-3 0  9996", "line2": "2 32212  99.5739  77.2690 0138002  94.4688 297.2425 14.40294020959828"}}, "geometry": {"type": "Point", "coordinates": [81.21488259760217, -3.6367386420391945]}}, {"type": "Feature", "properties": {"norad_id": 32214, "name": "FENGYUN 1C DEB", "group": "fengyun-1c-debris", "lat": -75.1554403088067, "lon": 46.82152281454017, "alt_km": 1009.9166245152901, "timestamp": "2025-12-10T04:57:29.904295+00:00", "meta": {"OBJECT_NAME": "FENGYUN 1C DEB", "OBJECT_ID": "1999-025CVL", "EPOCH": "2025-12-08T08:30:14.117184", "MEAN_MOTION": 13.90461739, "ECCENTRICITY": 0.01885393, "INCLINATION": 99.0431, "RA_OF_ASC_NODE": 8.0872, "ARG_OF_PERICENTER": 51.1198, "MEAN_ANOMALY": 325.6471, "EPHEMERIS_TYPE": 0, "CLASSIFICATION_TYPE": "U", "NORAD_CAT_ID": 32214, "ELEMENT_SET_NO": 999, "REV_AT_EPOCH": 62361, "BSTAR": 0.0051311209, "MEAN_MOTION_DOT": 7.327e-05, "MEAN_MOTION_DDOT": 0}, "tle": {"line1": "1 32214U 99025CVL 25342.35433006  .00007327  00000+0  51311-2 0  9998", "line2": "2 32214  99.0431   8.0872 0188539  51.1198 325.6471 13.90461739623613"}}, "geometry": {"type": "Point", "coordinates": [46.82152281454017, -75.1554403088067]}}, {"type": "Feature", "properties": {"norad_id": 32218, "name": "FENGYUN 1C DEB", "group": "fengyun-1c-debris", "lat": -74.86343846317565, "lon": -147.0779912798079, "alt_km": 754.9233073521436, "timestamp": "2025-12-10T04:57:29.904305+00:00", "meta": {"OBJECT_NAME": "FENGYUN 1C DEB", "OBJECT_ID": "1999-025CVQ", "EPOCH": "2025-12-09T19:29:13.667136", "MEAN_MOTION": 14.55455135, "ECCENTRICITY": 0.0063204, "INCLINATION": 98.8119, "RA_OF_ASC_NODE": 177.5143, "ARG_OF_PERICENTER": 76.3147, "MEAN_ANOMALY": 299.8651, "EPHEMERIS_TYPE": 0, "CLASSIFICATION_TYPE": "U", "NORAD_CAT_ID": 32218, "ELEMENT_SET_NO": 999, "REV_AT_EPOCH": 96190, "BSTAR": 0.0012649, "MEAN_MOTION_DOT": 5.601e-05, "MEAN_MOTION_DDOT": 0}, "tle": {"line1": "1 32218U 99025CVQ 25343.81196374  .00005601  00000+0  12649-2 0  9992", "line2": "2 32218  98.8119 177.5143 0063204  76.3147 299.8651 14.55455135961908"}}, "geometry": {"type": "Point", "coordinates": [-147.0779912798079, -74.86343846317565]}}, {"type": "Feature", "properties": {"norad_id": 32221, "name": "FENGYUN 1C DEB", "group": "fengyun-1c-debris", "lat": 37.876271556459635, "lon": -39.21898294215552, "alt_km": 593.028299339624, "timestamp": "2025-12-10T04:57:29.904316+00:00", "meta": {"OBJECT_NAME": "FENGYUN 1C DEB", "OBJECT_ID": "1999-025CVT", "EPOCH": "2025-12-09T16:47:21.492384", "MEAN_MOTION": 14.5867633, "ECCENTRICITY": 0.0146694, "INCLINATION": 98.5658, "RA_OF_ASC_NODE": 133.5257, "ARG_OF_PERICENTER": 155.0646, "MEAN_ANOMALY": 205.7734, "EPHEMERIS_TYPE": 0, "CLASSIFICATION_TYPE": "U", "NORAD_CAT_ID": 32221, "ELEMENT_SET_NO": 999, "REV_AT_EPOCH": 97153, "BSTAR": 0.00070962, "MEAN_MOTION_DOT": 3.786e-05, "MEAN_MOTION_DDOT": 0}, "tle": {"line1": "1 32221U 99025CVT 25343.69955431  .00003786  00000+0  70962-3 0  9994", "line2": "2 32221  98.5658 133.5257 0146694 155.0646 205.7734 14.58676330971532"}}, "geometry": {"type": "Point", "coordinates": [-39.21898294215552, 37.876271556459635]}}, {"type": "Feature", "properties": {"norad_id": 32223, "name": "FENGYUN 1C DEB", "group": "fengyun-1c-debris", "lat": 14.301043114122463, "lon": 60.99707083601064, "alt_km": 801.3512816495831, "timestamp": "2025-12-10T04:57:29.904326+00:00", "meta": {"OBJECT_NAME": "FENGYUN 1C DEB", "OBJECT_ID": "1999-025CVV", "EPOCH": "2025-12-08T23:18:24.820704", "MEAN_MOTION": 14.20861643, "ECCENTRICITY": 0.004664, "INCLINATION": 98.8382, "RA_OF_ASC_NODE": 62.0348, "ARG_OF_PERICENTER": 328.7083, "MEAN_ANOMALY": 209.4216, "EPHEMERIS_TYPE": 0, "CLASSIFICATION_TYPE": "U", "NORAD_CAT_ID": 32223, "ELEMENT_SET_NO": 999, "REV_AT_EPOCH": 64170, "BSTAR": 0.0016982, "MEAN_MOTION_DOT": 3.668e-05, "MEAN_MOTION_DDOT": 0}, "tle": {"line1": "1 32223U 99025CVV 25342.97112061  .00003668  00000+0  16982-2 0  9990", "line2": "2 32223  98.8382  62.0348 0046640 328.7083 209.4216 14.20861643641703"}}, "geometry": {"type": "Point", "coordinates": [60.99707083601064, 14.301043114122463]}}, {"type": "Feature", "properties": {"norad_id": 32224, "name": "FENGYUN 1C DEB", "group": "fengyun-1c-debris", "lat": 5.275170425604789, "lon": -65.71717000711686, "alt_km": 759.7342816909004, "timestamp": "2025-12-10T04:57:29.904337+00:00", "meta": {"OBJECT_NAME": "FENGYUN 1C DEB", "OBJECT_ID": "1999-025CVW", "EPOCH": "2025-12-08T07:43:12.731232", "MEAN_MOTION": 14.34009482, "ECCENTRICITY": 0.00771844, "INCLINATION": 98.9836, "RA_OF_ASC_NODE": 293.1625, "ARG_OF_PERICENTER": 79.2405, "MEAN_ANOMALY": 281.7455, "EPHEMERIS_TYPE": 0, "CLASSIFICATION_TYPE": "U", "NORAD_CAT_ID": 32224, "ELEMENT_SET_NO": 999, "REV_AT_EPOCH": 95660, "BSTAR": 0.00058724037, "MEAN_MOTION_DOT": 1.649e-05, "MEAN_MOTION_DDOT": 0}, "tle": {"line1": "1 32224U 99025CVW 25342.32167513  .00001649  00000+0  58724-3 0  9990", "line2": "2 32224  98.9836 293.1625 0077184  79.2405 281.7455 14.34009482956603"}}, "geometry": {"type": "Point", "coordinates": [-65.71717000711686, 5.275170425604789]}}, {"type": "Feature", "properties": {"norad_id": 32225, "name": "FENGYUN 1C DEB", "group": "fengyun-1c-debris", "lat": 27.507193028654942, "lon": -142.386059582256, "alt_km": 822.9488707014862, "timestamp": "2025-12-10T04:57:29.904347+00:00", "meta": {"OBJECT_NAME": "FENGYUN 1C DEB", "OBJECT_ID": "1999-025CVX", "EPOCH": "2025-12-08T09:45:01.195776", "MEAN_MOTION": 14.13039836, "ECCENTRICITY": 0.00715091, "INCLINATION": 99.0927, "RA_OF_ASC_NODE": 31.0024, "ARG_OF_PERICENTER": 218.7437, "MEAN_ANOMALY": 140.8594, "EPHEMERIS_TYPE": 0, "CLASSIFICATION_TYPE": "U", "NORAD_CAT_ID": 32225, "ELEMENT_SET_NO": 999, "REV_AT_EPOCH": 68055, "BSTAR": 0.00041203593, "MEAN_MOTION_DOT": 7.41e-06, "MEAN_MOTION_DDOT": 0}, "tle": {"line1": "1 32225U 99025CVX 25342.40626384  .00000741  00000+0  41204-3 0  9993", "line2": "2 32225  99.0927  31.0024 0071509 218.7437 140.8594 14.13039836680559"}}, "geometry": {"type": "Point", "coordinates": [-142.386059582256, 27.507193028654942]}}, {"type": "Feature", "properties": {"norad_id": 32230, "name": "FENGYUN 1C DEB", "group": "fengyun-1c-debris", "lat": -45.06905566700311, "lon": 142.66818694668473, "alt_km": 741.3987465117261, "timestamp": "2025-12-10T04:57:29.904357+00:00", "meta": {"OBJECT_NAME": "FENGYUN 1C DEB", "OBJECT_ID": "1999-025CWC", "EPOCH": "2025-12-09T09:38:00.553056", "MEAN_MOTION": 14.55976953, "ECCENTRICITY": 0.0050751, "INCLINATION": 98.8713, "RA_OF_ASC_NODE": 132.8053, "ARG_OF_PERICENTER": 99.6578, "MEAN_ANOMALY": 316.9422, "EPHEMERIS_TYPE": 0, "CLASSIFICATION_TYPE": "U", "NORAD_CAT_ID": 32230, "ELEMENT_SET_NO": 999, "REV_AT_EPOCH": 60621, "BSTAR": 0.0042979317, "MEAN_MOTION_DOT": 0.00019231, "MEAN_MOTION_DDOT": 0}, "tle": {"line1": "1 32230U 99025CWC 25343.40139529  .00019231  00000+0  42979-2 0  9993", "line2": "2 32230  98.8713 132.8053 0050751  99.6578 316.9422 14.55976953606218"}}, "geometry": {"type": "Point", "coordinates": [142.66818694668473, -45.06905566700311]}}, {"type": "Feature", "properties": {"norad_id": 32234, "name": "FENGYUN 1C DEB", "group": "fengyun-1c-debris", "lat": -71.1781790684715, "lon": -139.63189358179673, "alt_km": 864.5837203064848, "timestamp": "2025-12-10T04:57:29.904370+00:00", "meta": {"OBJECT_NAME": "FENGYUN 1C DEB", "OBJECT_ID": "1999-025CWG", "EPOCH": "2025-12-02T12:59:39.185664", "MEAN_MOTION": 13.9406659, "ECCENTRICITY": 0.0137699, "INCLINATION": 98.5292, "RA_OF_ASC_NODE": 187.1676, "ARG_OF_PERICENTER": 4.214, "MEAN_ANOMALY": 356.0148, "EPHEMERIS_TYPE": 0, "CLASSIFICATION_TYPE": "U", "NORAD_CAT_ID": 32234, "ELEMENT_SET_NO": 999, "REV_AT_EPOCH": 93067, "BSTAR": 0.0016148587, "MEAN_MOTION_DOT": 2.273e-05, "MEAN_MOTION_DDOT": 0}, "tle": {"line1": "1 32234U 99025CWG 25336.54142576  .00002273  00000+0  16149-2 0  9998", "line2": "2 32234  98.5292 187.1676 0137699   4.2140 356.0148 13.94066590930678"}}, "geometry": {"type": "Point", "coordinates": [-139.63189358179673, -71.1781790684715]}}]}